{
"type": "FeatureCollection",
"name": "MegaCrevasses",
"crs": { "type": "name", "properties": { "name": "urn:ogc:def:crs:OGC:1.3:CRS84" } },
"features": [
{ "type": "Feature", "properties": { "id": null }, "geometry": { "type": "MultiPolygon", "coordinates": [ [ [ [ -47.012154157729768, 69.46353458166017 ], [ -46.705558226641635, 69.503691913427801 ], [ -46.635715179313507, 69.443114823997092 ], [ -46.938177054521638, 69.40479832864574 ], [ -47.012154157729768, 69.46353458166017 ] ] ] ] } }
]
}
